HST                     
1 20580U 90037B   26185.61459300  .00011562  00000+0  36736-3 0  9996
2 20580  28.4737 321.4511 0001716 358.4915   1.5676 15.30968404791243
POLAR                   
1 23802U 96013A   26184.98221311  .00000203  00000+0  00000+0 0  9995
2 23802  79.8755 226.8535 6487344 208.5029  90.9548  1.29846112145077
SWAS                    
1 25560U 98071A   26185.24297071  .00002799  00000+0  17967-3 0  9996
2 25560  69.8939 183.5320 0008274 242.6949 117.3373 15.09703087499842
CXO                     
1 25867U 99040B   26187.88935528  .00000762  00000+0  00000+0 0  9995
2 25867  56.4267 116.1509 7809224 310.0350   0.5660  0.37802688 17396
XMM-NEWTON              
1 25989U 99066A   26181.31376484  .00000075  00000+0  00000+0 0  9997
2 25989  64.4187 282.8185 4670815  64.6474   0.0796  0.50127122 23075
TERRA                   
1 25994U 99068A   26185.63628185  .00000621  00000+0  13521-3 0  9995
2 25994  97.9446 234.4899 0002873 143.9918  16.3015 14.61118561412157
CLUSTER II-FM7 (SAMBA)  
1 26410U 00041A   26188.21797159  .00007566  00000+0  00000+0 0  9996
2 26410 149.8716  54.4790 9079263 271.8893 359.5006  0.44837774 20390
CLUSTER II-FM8 (TANGO)  
1 26464U 00045B   26184.19681525  .00012165  00000+0  00000+0 0  9992
2 26464 150.1065  54.7656 9078554 272.0035   2.3073  0.44420887 20387
ODIN                    
1 26702U 01007A   26185.58418876  .00550414  00000+0  23840-2 0  9991
2 26702  97.3755 227.7265 0005271 136.8814 223.2869 15.83489487392140
TIMED                   
1 26998U 01055B   26185.47018051  .00001509  00000+0  14041-3 0  9990
2 26998  74.0661 200.2185 0001932 311.3918  48.7101 14.95329807333401
CORIOLIS                
1 27640U 03001A   26185.46109789  .00000119  00000+0  76266-4 0  9990
2 27640  98.7128 192.0822 0014401 158.6711 201.5069 14.19949628216677
SORCE                   
1 27651U 03004A   26185.27384723  .00003392  00000+0  25254-3 0  9993
2 27651  39.9891 164.1845 0017381 179.1457 180.9369 15.03795657274473
MOST                    
1 27843U 03031D   26185.45847675  .00000082  00000+0  57688-4 0  9996
2 27843  98.7046 192.9433 0009442 196.2458 163.8418 14.21326120193168
SCISAT 1                
1 27858U 03036A   26185.31053587  .00000799  00000+0  10657-3 0  9992
2 27858  73.9296 137.3210 0007910 206.9427 153.1340 14.81468518233980
SWIFT                   
1 28485U 04047A   26185.28803099  .00075476  00000+0  58570-3 0  9999
2 28485  20.5529  52.8275 0000799 197.6102 162.4317 15.70048873189557
HINODE (SOLAR-B)        
1 29479U 06041A   26185.49074653  .00001108  00000+0  19862-3 0  9990
2 29479  98.0545 201.3881 0016272 230.0435 129.9341 14.68649313 57413
SHIJIAN-6 02A (SJ-6 02A)
1 29505U 06046A   26185.63687642  .00010236  00000+0  51875-3 0  9991
2 29505  97.6347 226.8352 0004776  86.6640 273.5140 15.17153705 74919
SHIJIAN-6 02B (SJ-6 02B)
1 29506U 06046B   26185.60767300  .00001320  00000+0  10682-3 0  9994
2 29506  97.7147 214.5589 0014721  10.4723 349.6805 15.01419751 73352
FGRST (GLAST)           
1 33053U 08029A   26185.38349583  .00003842  00000+0  14036-3 0  9991
2 33053  25.5821  85.0693 0008176 166.5911 193.4846 15.24028352998464
SDO                     
1 36395U 10005A   26183.25044652 -.00000081  00000+0  00000+0 0  9998
2 36395  34.6806  86.1151 0001496  53.7669 128.3250  1.00270409 60216
CRYOSAT 2               
1 36508U 10013A   26185.51829944  .00000207  00000+0  50662-4 0  9992
2 36508  92.0361 281.5148 0002230  96.6855 263.4607 14.51896063860599
X-SAT                   
1 37389U 11015C   26185.63642409  .00000039  00000+0  34231-4 0  9992
2 37389  98.3520 161.8295 0012903 294.8938  65.0901 14.25210842790162
GCOM-W1 (SHIZUKU)       
1 38337U 12025A   26185.63330613  .00000714  00000+0  16845-3 0  9999
2 38337  98.2022 125.9251 0001484  66.4505 106.7151 14.57142313751574
NUSTAR                  
1 38358U 12031A   26185.66670139  .00024919  00000+0  14723-2 0  9997
2 38358   6.0266 263.0175 0007406   1.3271 255.0763 15.08967474  1307
NEOSSAT                 
1 39089U 13009D   26185.49174534  .00000251  00000+0  10148-3 0  9995
2 39089  98.4185   5.1134 0010760 188.7439 171.3561 14.35833144699222
BRITE-AUSTRIA           
1 39091U 13009F   26184.43698565  .00000188  00000+0  78355-4 0  9990
2 39091  98.4002   3.4710 0010018 184.9136 175.1954 14.36548610699389
IRIS                    
1 39197U 13033A   26185.26933275  .00001286  00000+0  15325-3 0  9993
2 39197  97.9322  24.4925 0022954 262.8702  96.9903 14.85920340702919
HISAKI (SPRINT-A)       
1 39253U 13049A   26185.50993727  .00000103  00000+0  49977-4 0  9996
2 39253  29.7183 131.9373 0136889 157.2954 203.3742 13.55546046633775
CASSIOPE                
1 39265U 13055A   26185.60366863  .00063591  92707-7  68664-3 0  9998
2 39265  80.9132  45.5453 0285899   3.7559 356.5722 15.26799316670323
STSAT-3                 
1 39422U 13066G   26185.62436743  .00002084  00000+0  15992-3 0  9995
2 39422  97.6212 155.2325 0009329 349.0373  11.0647 15.02847272686821
